start=new Date('2023-03-03T00:00:00.000Z').valueOf();
sats=[{"RA_OF_ASC_NODE":"88.7951","EPOCH":"2023-03-02T13:15:08.688960","APOAPSIS":"548.111","SEMIMAJOR_AXIS":"6925.324","COUNTRY_CODE":"US","DECAY_DATE":null,"GP_ID":"227357800","MEAN_MOTION":"15.06408146","MEAN_ANOMALY":"273.9009","OBJECT_ID":"2020-070M","MEAN_MOTION_DOT":"0.00024041","REF_FRAME":"TEME","EPHEMERIS_TYPE":"0","OBJECT_TYPE":"PAYLOAD","SITE":"AFETR","TLE_LINE1":"1 46543U 20070M   23061.55218390  .00024041  00000-0  16270-2 0  9995","PERIOD":"95.592","BSTAR":"0.00162700000000","CLASSIFICATION_TYPE":"U","ARG_OF_PERICENTER":"86.2132","CENTER_NAME":"EARTH","TLE_LINE2":"2 46543  53.0527  88.7951 0001332  86.2132 273.9009 15.06408146133232","LAUNCH_DATE":"2020-10-06","PERIAPSIS":"546.266","ECCENTRICITY":"0.00013320","MEAN_MOTION_DDOT":"0.0000000000000","RCS_SIZE":"LARGE","TIME_SYSTEM":"UTC","INCLINATION":"53.0527","OBJECT_NAME":"STARLINK-1693","REV_AT_EPOCH":"13323","FILE":"3849487","ELEMENT_SET_NO":"999","NORAD_CAT_ID":"46543","MEAN_ELEMENT_THEORY":"SGP4"},{"PERIAPSIS":"546.461","TLE_LINE2":"2 46544  53.0514  73.8179 0001023  91.7953 268.3153 15.06414245133443","LAUNCH_DATE":"2020-10-06","REV_AT_EPOCH":"13344","RCS_SIZE":"LARGE","INCLINATION":"53.0514","TIME_SYSTEM":"UTC","OBJECT_NAME":"STARLINK-1694","MEAN_MOTION_DDOT":"0.0000000000000","ECCENTRICITY":"0.00010230","ARG_OF_PERICENTER":"91.7953","CENTER_NAME":"EARTH","CLASSIFICATION_TYPE":"U","ELEMENT_SET_NO":"999","MEAN_ELEMENT_THEORY":"SGP4","NORAD_CAT_ID":"46544","FILE":"3849487","COUNTRY_CODE":"US","SEMIMAJOR_AXIS":"6925.305","APOAPSIS":"547.878","EPOCH":"2023-03-02T13:09:10.569600","RA_OF_ASC_NODE":"73.8179","OBJECT_ID":"2020-070N","MEAN_ANOMALY":"268.3153","MEAN_MOTION":"15.06414245","GP_ID":"227358050","DECAY_DATE":null,"OBJECT_TYPE":"PAYLOAD","BSTAR":"0.00184220000000","PERIOD":"95.591","TLE_LINE1":"1 46544U 20070N   23061.54803900  .00027275  00000-0  18422-2 0  9995","SITE":"AFETR","REF_FRAME":"TEME","MEAN_MOTION_DOT":"0.00027275","EPHEMERIS_TYPE":"0"},{"NORAD_CAT_ID":"46545","MEAN_ELEMENT_THEORY":"SGP4","ELEMENT_SET_NO":"999","FILE":"3849487","MEAN_MOTION_DDOT":"0.0000000000000","ECCENTRICITY":"0.00012830","REV_AT_EPOCH":"13326","TIME_SYSTEM":"UTC","RCS_SIZE":"LARGE","INCLINATION":"53.0531","OBJECT_NAME":"STARLINK-1696","LAUNCH_DATE":"2020-10-06","TLE_LINE2":"2 46545  53.0531  87.7337 0001283  78.2555 281.8578 15.06414692133266","PERIAPSIS":"546.280","ARG_OF_PERICENTER":"78.2555","CENTER_NAME":"EARTH","CLASSIFICATION_TYPE":"U","BSTAR":"0.00162250000000","PERIOD":"95.591","TLE_LINE1":"1 46545U 20070P   23061.78808231  .00023978  00000-0  16225-2 0  9999","SITE":"AFETR","OBJECT_TYPE":"PAYLOAD","EPHEMERIS_TYPE":"0","MEAN_MOTION_DOT":"0.00023978","REF_FRAME":"TEME","MEAN_MOTION":"15.06414692","DECAY_DATE":null,"GP_ID":"227358308","OBJECT_ID":"2020-070P","MEAN_ANOMALY":"281.8578","EPOCH":"2023-03-02T18:54:50.311584","RA_OF_ASC_NODE":"87.7337","SEMIMAJOR_AXIS":"6925.304","COUNTRY_CODE":"US","APOAPSIS":"548.057"},{"RA_OF_ASC_NODE":"87.8025","EPOCH":"2023-03-02T18:33:35.267904","APOAPSIS":"548.088","SEMIMAJOR_AXIS":"6925.317","COUNTRY_CODE":"US","GP_ID":"227359052","DECAY_DATE":null,"MEAN_MOTION":"15.06410346","MEAN_ANOMALY":"265.3209","OBJECT_ID":"2020-070Q","OBJECT_TYPE":"PAYLOAD","SITE":"AFETR","TLE_LINE1":"1 46546U 20070Q   23061.77332486  .00013146  00000-0  89951-3 0  9996","BSTAR":"0.00089951000000","PERIOD":"95.591","MEAN_MOTION_DOT":"0.00013146","REF_FRAME":"TEME","EPHEMERIS_TYPE":"0","LAUNCH_DATE":"2020-10-06","TLE_LINE2":"2 46546  53.0519  87.8025 0001309  94.7929 265.3209 15.06410346133265","PERIAPSIS":"546.275","ECCENTRICITY":"0.00013090","MEAN_MOTION_DDOT":"0.0000000000000","RCS_SIZE":"LARGE","INCLINATION":"53.0519","OBJECT_NAME":"STARLINK-1697","TIME_SYSTEM":"UTC","REV_AT_EPOCH":"13326","CLASSIFICATION_TYPE":"U","CENTER_NAME":"EARTH","ARG_OF_PERICENTER":"94.7929","ELEMENT_SET_NO":"999","NORAD_CAT_ID":"46546","MEAN_ELEMENT_THEORY":"SGP4","FILE":"3849487"},{"MEAN_MOTION":"15.06412827","DECAY_DATE":null,"GP_ID":"227357307","OBJECT_ID":"2020-070R","MEAN_ANOMALY":"283.9628","EPOCH":"2023-03-02T19:14:41.121312","RA_OF_ASC_NODE":"87.6628","SEMIMAJOR_AXIS":"6925.309","COUNTRY_CODE":"US","APOAPSIS":"548.572","EPHEMERIS_TYPE":"0","MEAN_MOTION_DOT":"0.00002042","REF_FRAME":"TEME","BSTAR":"0.00015592000000","PERIOD":"95.591","TLE_LINE1":"1 46547U 20070R   23061.80186483  .00002042  00000-0  15592-3 0  9998","SITE":"AFETR","OBJECT_TYPE":"PAYLOAD","CENTER_NAME":"EARTH","ARG_OF_PERICENTER":"76.1585","CLASSIFICATION_TYPE":"U","MEAN_MOTION_DDOT":"0.0000000000000","ECCENTRICITY":"0.00020180","REV_AT_EPOCH":"13327","INCLINATION":"53.0519","RCS_SIZE":"LARGE","TIME_SYSTEM":"UTC","OBJECT_NAME":"STARLINK-1698","TLE_LINE2":"2 46547  53.0519  87.6628 0002018  76.1585 283.9628 15.06412827133271","LAUNCH_DATE":"2020-10-06","PERIAPSIS":"545.777","FILE":"3849487","NORAD_CAT_ID":"46547","MEAN_ELEMENT_THEORY":"SGP4","ELEMENT_SET_NO":"999"},{"FILE":"3849487","NORAD_CAT_ID":"46548","MEAN_ELEMENT_THEORY":"SGP4","ELEMENT_SET_NO":"999","ARG_OF_PERICENTER":"81.9425","CENTER_NAME":"EARTH","CLASSIFICATION_TYPE":"U","MEAN_MOTION_DDOT":"0.0000000000000","ECCENTRICITY":"0.00013560","REV_AT_EPOCH":"13323","RCS_SIZE":"LARGE","TIME_SYSTEM":"UTC","INCLINATION":"53.0528","OBJECT_NAME":"STARLINK-1699","TLE_LINE2":"2 46548  53.0528  88.8100 0001356  81.9425 278.1717 15.06409868133233","LAUNCH_DATE":"2020-10-06","PERIAPSIS":"546.244","EPHEMERIS_TYPE":"0","MEAN_MOTION_DOT":"0.00022712","REF_FRAME":"TEME","BSTAR":"0.00153830000000","PERIOD":"95.592","SITE":"AFETR","TLE_LINE1":"1 46548U 20070S   23061.54849588  .00022712  00000-0  15383-2 0  9995","OBJECT_TYPE":"PAYLOAD","MEAN_MOTION":"15.06409868","DECAY_DATE":null,"GP_ID":"227357557","OBJECT_ID":"2020-070S","MEAN_ANOMALY":"278.1717","EPOCH":"2023-03-02T13:09:50.044032","RA_OF_ASC_NODE":"88.8100","COUNTRY_CODE":"US","SEMIMAJOR_AXIS":"6925.318","APOAPSIS":"548.122"},{"EPHEMERIS_TYPE":"0","MEAN_MOTION_DOT":"0.00023617","REF_FRAME":"TEME","BSTAR":"0.00159790000000","PERIOD":"95.590","SITE":"AFETR","TLE_LINE1":"1 46549U 20070T   23061.77702127  .00023617  00000-0  15979-2 0  9994","OBJECT_TYPE":"PAYLOAD","MEAN_MOTION":"15.06426872","DECAY_DATE":null,"GP_ID":"227358802","OBJECT_ID":"2020-070T","MEAN_ANOMALY":"265.9685","EPOCH":"2023-03-02T18:38:54.637728","RA_OF_ASC_NODE":"87.7857","COUNTRY_CODE":"US","SEMIMAJOR_AXIS":"6925.266","APOAPSIS":"547.767","FILE":"3849487","NORAD_CAT_ID":"46549","MEAN_ELEMENT_THEORY":"SGP4","ELEMENT_SET_NO":"999","ARG_OF_PERICENTER":"94.1409","CENTER_NAME":"EARTH","CLASSIFICATION_TYPE":"U","MEAN_MOTION_DDOT":"0.0000000000000","ECCENTRICITY":"0.00009180","REV_AT_EPOCH":"13326","RCS_SIZE":"LARGE","INCLINATION":"53.0516","OBJECT_NAME":"STARLINK-1700","TIME_SYSTEM":"UTC","LAUNCH_DATE":"2020-10-06","TLE_LINE2":"2 46549  53.0516  87.7857 0000918  94.1409 265.9685 15.06426872133264","PERIAPSIS":"546.495"},{"REF_FRAME":"TEME","MEAN_MOTION_DOT":"0.00021555","EPHEMERIS_TYPE":"0","OBJECT_TYPE":"PAYLOAD","PERIOD":"95.591","BSTAR":"0.00146080000000","TLE_LINE1":"1 46550U 20070U   23061.76228200  .00021555  00000-0  14608-2 0  9997","SITE":"AFETR","SEMIMAJOR_AXIS":"6925.292","COUNTRY_CODE":"US","APOAPSIS":"547.942","EPOCH":"2023-03-02T18:17:41.164800","RA_OF_ASC_NODE":"87.8507","OBJECT_ID":"2020-070U","MEAN_ANOMALY":"264.4390","MEAN_MOTION":"15.06418410","GP_ID":"227358559","DECAY_DATE":null,"FILE":"3849487","ELEMENT_SET_NO":"999","MEAN_ELEMENT_THEORY":"SGP4","NORAD_CAT_ID":"46550","ARG_OF_PERICENTER":"95.6728","CENTER_NAME":"EARTH","CLASSIFICATION_TYPE":"U","PERIAPSIS":"546.372","LAUNCH_DATE":"2020-10-06","TLE_LINE2":"2 46550  53.0540  87.8507 0001134  95.6728 264.4390 15.06418410133263","REV_AT_EPOCH":"13326","RCS_SIZE":"LARGE","INCLINATION":"53.0540","TIME_SYSTEM":"UTC","OBJECT_NAME":"STARLINK-1701","MEAN_MOTION_DDOT":"0.0000000000000","ECCENTRICITY":"0.00011340"},{"RA_OF_ASC_NODE":"359.4425","EPOCH":"2023-03-02T20:00:01.000224","APOAPSIS":"328.355","COUNTRY_CODE":"US","SEMIMAJOR_AXIS":"6701.490","GP_ID":"227357801","DECAY_DATE":null,"MEAN_MOTION":"15.82507203","MEAN_ANOMALY":"352.6185","OBJECT_ID":"2020-070W","MEAN_MOTION_DOT":"0.00347958","REF_FRAME":"TEME","EPHEMERIS_TYPE":"0","OBJECT_TYPE":"PAYLOAD","TLE_LINE1":"1 46552U 20070W   23061.83334491  .00347958  00000-0  15706-2 0  9995","SITE":"AFETR","PERIOD":"90.995","BSTAR":"0.00157060000000","CLASSIFICATION_TYPE":"U","CENTER_NAME":"EARTH","ARG_OF_PERICENTER":"130.2880","TLE_LINE2":"2 46552  53.0396 359.4425 0007461 130.2880 352.6185 15.82507203  1309","LAUNCH_DATE":"2020-10-06","PERIAPSIS":"318.355","ECCENTRICITY":"0.00074610","MEAN_MOTION_DDOT":"0.0000000000000","RCS_SIZE":"LARGE","OBJECT_NAME":"STARLINK-1649","INCLINATION":"53.0396","TIME_SYSTEM":"UTC","REV_AT_EPOCH":"130","FILE":"3849487","ELEMENT_SET_NO":"999","NORAD_CAT_ID":"46552","MEAN_ELEMENT_THEORY":"SGP4"},{"MEAN_MOTION":"15.06416043","GP_ID":"227358051","DECAY_DATE":null,"OBJECT_ID":"2020-070X","MEAN_ANOMALY":"272.4705","EPOCH":"2023-03-02T16:24:53.170272","RA_OF_ASC_NODE":"58.2165","SEMIMAJOR_AXIS":"6925.299","COUNTRY_CODE":"US","APOAPSIS":"548.216","EPHEMERIS_TYPE":"0","MEAN_MOTION_DOT":"0.00009178","REF_FRAME":"TEME","PERIOD":"95.591","BSTAR":"0.00063396000000","TLE_LINE1":"1 46553U 20070X   23061.68394873  .00009178  00000-0  63396-3 0  9997","SITE":"AFETR","OBJECT_TYPE":"PAYLOAD","ARG_OF_PERICENTER":"87.6458","CENTER_NAME":"EARTH","CLASSIFICATION_TYPE":"U","MEAN_MOTION_DDOT":"0.0000000000000","ECCENTRICITY":"0.00015180","REV_AT_EPOCH":"13367","RCS_SIZE":"LARGE","OBJECT_NAME":"STARLINK-1664","INCLINATION":"53.0543","TIME_SYSTEM":"UTC","LAUNCH_DATE":"2020-10-06","TLE_LINE2":"2 46553  53.0543  58.2165 0001518  87.6458 272.4705 15.06416043133672","PERIAPSIS":"546.113","FILE":"3849487","NORAD_CAT_ID":"46553","MEAN_ELEMENT_THEORY":"SGP4","ELEMENT_SET_NO":"999"}];
